IRIDIUM 36 [-]          
1 24967U 97056C   24114.59284759  .00001273  00000+0  42541-3 0  9997
2 24967  86.3995 349.2186 0002034  86.8302 273.3128 14.36744871391957
IRIDIUM 39 [-]          
1 25042U 97069D   24114.27546000  .00002155  00000+0  57602-3 0  9995
2 25042  86.3969  31.0416 0015948 267.9597  91.9780 14.47867643388174
IRIDIUM 38 [-]          
1 25043U 97069E   24114.33908203  .00001752  00000+0  58244-3 0  9995
2 25043  86.3984  49.6973 0003706  64.4076 295.7504 14.37194014385636
IRIDIUM 42 [-]          
1 25077U 97077A   24114.32706978  .00001660  00000+0  57069-3 0  9997
2 25077  86.3977  55.3579 0002797  78.3895 281.7615 14.35500337380947
IRIDIUM 44 [-]          
1 25078U 97077B   24114.29453965  .00001657  00000+0  52727-3 0  9991
2 25078  86.3996  38.4256 0002142  37.0435 323.0911 14.39330091383280
IRIDIUM 45 [-]          
1 25104U 97082A   24114.34449146  .00026318  00000+0  15003-2 0  9995
2 25104  86.3738 247.9572 0165092  79.2116 282.7651 15.01732465388626
IRIDIUM 24 [-]          
1 25105U 97082B   24114.45049157  .00001783  00000+0  54758-3 0  9996
2 25105  86.3887 258.0366 0012441  33.2892 326.9088 14.41098181382741
IRIDIUM 51 [-]          
1 25262U 98018A   24114.45311493  .00023425  00000+0  11202-2 0  9998
2 25262  86.3958 257.8856 0150048  25.0300 335.8113 15.09365399383151
